OBJECT_NAME,OBJECT_ID,EPOCH,MEAN_MOTION,ECCENTRICITY,INCLINATION,RA_OF_ASC_NODE,ARG_OF_PERICENTER,MEAN_ANOMALY,EPHEMERIS_TYPE,CLASSIFICATION_TYPE,NORAD_CAT_ID,ELEMENT_SET_NO,REV_AT_EPOCH,BSTAR,MEAN_MOTION_DOT,MEAN_MOTION_DDOT
ONEWEB-0597,2022-166X,2026-06-18T04:42:16.047648,13.21826679,.00019935,87.9253,243.7867,94.9553,265.1808,0,U,54663,999,17167,-.14697001E-4,.7E-7,0
ONEWEB-0600,2022-166Y,2026-06-17T15:32:35.314080,13.21824735,.00018295,87.9252,243.8872,96.6010,263.5332,0,U,54664,999,17157,.103484E-3,.56E-6,0
ONEWEB-0601,2022-166Z,2026-06-17T17:09:29.272896,13.21825701,.00020719,87.9251,243.8900,91.6851,268.4520,0,U,54665,999,17177,-.7592931E-5,.1E-6,0
ONEWEB-0602,2022-166AA,2026-06-18T05:02:50.928288,13.21826655,.00017859,87.9249,243.7972,95.5585,264.5753,0,U,54666,999,17168,.7262836E-4,.43E-6,0
ONEWEB-0603,2022-166AB,2026-06-18T03:22:20.228160,13.21826615,.00019877,87.9261,243.7684,96.0590,264.0770,0,U,54667,999,17160,.67678291E-4,.41E-6,0
ONEWEB-0604,2022-166AC,2026-06-18T03:05:21.464160,13.21828191,.00020343,87.9263,243.7862,101.2560,258.8802,0,U,54668,999,17156,.12353354E-3,.64E-6,0
ONEWEB-0605,2022-166AD,2026-06-17T17:50:40.769952,13.21826784,.00025254,87.9254,243.8762,88.9091,271.2333,0,U,54669,999,17158,.41516399E-4,.3E-6,0
ONEWEB-0606,2022-166AE,2026-06-17T18:22:09.884352,13.21826845,.0002024,87.9252,243.8845,104.0627,256.0732,0,U,54670,999,17164,.1121967E-3,.59E-6,0
ONEWEB-0607,2022-166AF,2026-06-18T04:27:43.286688,13.21824795,.00019657,87.9261,243.7717,94.5868,265.5490,0,U,54671,999,17167,.9636278E-5,.17E-6,0
ONEWEB-0608,2022-166AG,2026-06-18T04:37:23.989728,13.21827837,.00022431,87.9265,243.7671,85.5149,274.6241,0,U,54672,999,17168,.16287831E-4,.2E-6,0
ONEWEB-0610,2022-166AH,2026-06-17T17:14:19.561344,13.21824274,.00020567,87.9254,243.8756,81.4327,278.7040,0,U,54673,999,17152,-.53659999E-4,-.9E-7,0
ONEWEB-0611,2022-166AJ,2026-06-17T15:15:36.635616,13.21827512,.00020555,87.9255,243.8881,102.8048,257.3315,0,U,54674,999,17150,-.20776204E-4,.4E-7,0
ONEWEB-0612,2022-166AK,2026-06-17T17:24:01.604448,13.21825054,.00020387,87.9267,243.8657,93.6623,266.4744,0,U,54675,999,17150,.11329516E-3,.6E-6,0
ONEWEB-0615,2022-166AL,2026-06-18T05:37:59.020896,13.21826632,.00019118,87.9255,243.7789,106.0924,254.0420,0,U,54676,999,17158,.25627628E-3,.119E-5,0
ONEWEB-0655,2022-166AM,2026-06-18T03:15:03.915936,13.21827261,.0001813,87.9252,243.7999,94.7101,265.4240,0,U,54677,999,17156,.19116368E-3,.92E-6,0
ONEWEB-0659,2022-166AN,2026-06-17T18:34:16.008096,13.21828293,.00021167,87.9251,243.8718,101.0083,259.1289,0,U,54678,999,17160,.15868797E-3,.79E-6,0
ONEWEB-0685,2022-166AP,2026-06-17T14:56:22.916544,13.21847528,.00020584,87.9249,243.8940,88.4386,271.6984,0,U,54679,999,17147,.24718978E-3,.115E-5,0
ONEWEB-0712,2022-166AQ,2026-06-18T02:58:31.676736,13.16594388,.00015884,87.9098,228.5887,93.2688,266.8625,0,U,54680,999,17218,-.9478676E-5,.9E-7,0
ONEWEB-0714,2022-166AR,2026-06-17T15:03:31.123584,13.21824566,.00017496,87.9254,243.8905,99.6962,260.4369,0,U,54681,999,17159,.298369E-3,.136E-5,0
ONEWEB-0532,2023-004A,2026-06-18T02:17:57.424992,13.17821147,.00022259,87.9132,5.6837,87.2894,272.8493,0,U,55140,999,16770,-.13292466E-3,-.39E-6,0
ONEWEB-0533,2023-004B,2026-06-18T01:36:54.538560,13.12443476,.00017943,87.8946,350.4951,84.8762,275.2571,0,U,55141,999,16817,-.11290836E-2,-.393E-5,0
ONEWEB-0541,2023-004C,2026-06-18T02:20:54.323808,13.11421116,.00019012,87.8894,20.8768,90.4851,269.6495,0,U,55142,999,16606,.37101862E-3,.144E-5,0
ONEWEB-0543,2023-004D,2026-06-17T23:57:51.610464,13.18685517,.00016199,87.9163,335.3078,92.9429,267.1889,0,U,55143,999,16980,-.45242319E-4,-.5E-7,0
ONEWEB-0544,2023-004E,2026-06-17T23:48:08.989344,13.18685972,.00017574,87.9162,335.3090,99.4608,260.6723,0,U,55144,999,16980,-.84885242E-4,-.21E-6,0
ONEWEB-0560,2023-004F,2026-06-17T23:38:26.054592,13.18686809,.00016452,87.9161,335.2997,100.4519,259.6799,0,U,55145,999,16981,-.34083391E-4,-.1E-7,0
ONEWEB-0565,2023-004G,2026-06-17T23:28:43.726368,13.18685368,.00020776,87.9152,335.3290,103.9030,256.2333,0,U,55146,999,16980,-.28547815E-4,.2E-7,0
ONEWEB-0567,2023-004H,2026-06-17T23:19:01.248672,13.18685278,.00019491,87.9161,335.3146,104.2357,255.8992,0,U,55147,999,16980,-.66814413E-4,-.13E-6,0
ONEWEB-0569,2023-004J,2026-06-17T22:08:02.706720,13.13469997,.00017022,87.8962,320.0731,126.4028,233.7259,0,U,55148,999,17027,-.34152021E-3,-.112E-5,0
ONEWEB-0570,2023-004K,2026-06-17T23:06:51.938496,13.18685200,.00022536,87.9160,335.3141,94.0446,266.0944,0,U,55149,999,16979,-.9813435E-5,.9E-7,0
ONEWEB-0571,2023-004L,2026-06-17T22:57:09.336384,13.18687716,.0002335,87.9161,335.3149,125.9157,234.2192,0,U,55150,999,16980,-.82432318E-4,-.2E-6,0
