ONEWEB-0597             
1 54663U 22166X   26169.19601907  .00000007  00000+0 -14697-4 0  9996
2 54663  87.9253 243.7867 0001993  94.9553 265.1808 13.21826679171671
ONEWEB-0600             
1 54664U 22166Y   26168.64763095  .00000056  00000+0  10348-3 0  9994
2 54664  87.9252 243.8872 0001829  96.6010 263.5332 13.21824735171577
ONEWEB-0601             
1 54665U 22166Z   26168.71492214  .00000010  00000+0 -75929-5 0  9994
2 54665  87.9251 243.8900 0002071  91.6851 268.4520 13.21825701171776
ONEWEB-0602             
1 54666U 22166AA  26169.21031167  .00000043  00000+0  72628-4 0  9994
2 54666  87.9249 243.7972 0001785  95.5585 264.5753 13.21826655171684
ONEWEB-0603             
1 54667U 22166AB  26169.14051190  .00000041  00000+0  67678-4 0  9992
2 54667  87.9261 243.7684 0001987  96.0590 264.0770 13.21826615171607
ONEWEB-0604             
1 54668U 22166AC  26169.12872065  .00000064  00000+0  12353-3 0  9997
2 54668  87.9263 243.7862 0002034 101.2560 258.8802 13.21828191171561
ONEWEB-0605             
1 54669U 22166AD  26168.74352743  .00000030  00000+0  41516-4 0  9998
2 54669  87.9254 243.8762 0002525  88.9091 271.2333 13.21826784171583
ONEWEB-0606             
1 54670U 22166AE  26168.76539218  .00000059  00000+0  11220-3 0  9995
2 54670  87.9252 243.8845 0002024 104.0627 256.0732 13.21826845171643
ONEWEB-0607             
1 54671U 22166AF  26169.18591767  .00000017  00000+0  96363-5 0  9997
2 54671  87.9261 243.7717 0001965  94.5868 265.5490 13.21824795171675
ONEWEB-0608             
1 54672U 22166AG  26169.19263877  .00000020  00000+0  16288-4 0  9998
2 54672  87.9265 243.7671 0002243  85.5149 274.6241 13.21827837171687
ONEWEB-0610             
1 54673U 22166AH  26168.71828196 -.00000009  00000+0 -53660-4 0  9991
2 54673  87.9254 243.8756 0002056  81.4327 278.7040 13.21824274171523
ONEWEB-0611             
1 54674U 22166AJ  26168.63584069  .00000004  00000+0 -20776-4 0  9997
2 54674  87.9255 243.8881 0002055 102.8048 257.3315 13.21827512171505
ONEWEB-0612             
1 54675U 22166AK  26168.72501857  .00000060  00000+0  11330-3 0  9998
2 54675  87.9267 243.8657 0002038  93.6623 266.4744 13.21825054171503
ONEWEB-0615             
1 54676U 22166AL  26169.23471089  .00000119  00000+0  25628-3 0  9999
2 54676  87.9255 243.7789 0001911 106.0924 254.0420 13.21826632171583
ONEWEB-0655             
1 54677U 22166AM  26169.13546199  .00000092  00000+0  19116-3 0  9999
2 54677  87.9252 243.7999 0001813  94.7101 265.4240 13.21827261171568
ONEWEB-0659             
1 54678U 22166AN  26168.77379639  .00000079  00000+0  15869-3 0  9998
2 54678  87.9251 243.8718 0002116 101.0083 259.1289 13.21828293171600
ONEWEB-0685             
1 54679U 22166AP  26168.62248746  .00000115  00000+0  24719-3 0  9992
2 54679  87.9249 243.8940 0002058  88.4386 271.6984 13.21847528171472
ONEWEB-0712             
1 54680U 22166AQ  26169.12397774  .00000009  00000+0 -94787-5 0  9993
2 54680  87.9098 228.5887 0001588  93.2688 266.8625 13.16594388172186
ONEWEB-0714             
1 54681U 22166AR  26168.62744356  .00000136  00000+0  29837-3 0  9992
2 54681  87.9254 243.8905 0001749  99.6962 260.4369 13.21824566171595
ONEWEB-0532             
1 55140U 23004A   26169.09580353 -.00000039  00000+0 -13292-3 0  9994
2 55140  87.9132   5.6837 0002225  87.2894 272.8493 13.17821147167706
ONEWEB-0533             
1 55141U 23004B   26169.06729790 -.00000393  00000+0 -11291-2 0  9991
2 55141  87.8946 350.4951 0001794  84.8762 275.2571 13.12443476168170
ONEWEB-0541             
1 55142U 23004C   26169.09785097  .00000144  00000+0  37102-3 0  9999
2 55142  87.8894  20.8768 0001901  90.4851 269.6495 13.11421116166063
ONEWEB-0543             
1 55143U 23004D   26168.99851401 -.00000005  00000+0 -45242-4 0  9994
2 55143  87.9163 335.3078 0001619  92.9429 267.1889 13.18685517169805
ONEWEB-0544             
1 55144U 23004E   26168.99177071 -.00000021  00000+0 -84885-4 0  9993
2 55144  87.9162 335.3090 0001757  99.4608 260.6723 13.18685972169803
ONEWEB-0560             
1 55145U 23004F   26168.98502378 -.00000001  00000+0 -34083-4 0  9998
2 55145  87.9161 335.2997 0001645 100.4519 259.6799 13.18686809169810
ONEWEB-0565             
1 55146U 23004G   26168.97828387  .00000002  00000+0 -28548-4 0  9998
2 55146  87.9152 335.3290 0002077 103.9030 256.2333 13.18685368169809
ONEWEB-0567             
1 55147U 23004H   26168.97154223 -.00000013  00000+0 -66814-4 0  9991
2 55147  87.9161 335.3146 0001949 104.2357 255.8992 13.18685278169809
ONEWEB-0569             
1 55148U 23004J   26168.92225355 -.00000112  00000+0 -34152-3 0  9991
2 55148  87.8962 320.0731 0001702 126.4028 233.7259 13.13469997170274
ONEWEB-0570             
1 55149U 23004K   26168.96310114  .00000009  00000+0 -98134-5 0  9990
2 55149  87.9160 335.3141 0002253  94.0446 266.0944 13.18685200169793
ONEWEB-0571             
1 55150U 23004L   26168.95635806 -.00000020  00000+0 -82432-4 0  9996
2 55150  87.9161 335.3149 0002335 125.9157 234.2192 13.18687716169806
